{
    "links": {
        "self": "http://www.neowsapp.com/rest/v1/neo/3290340?api_key=iIulBulltgU6a56xZRHN4H3l9WmuAYTsLGpBGhQ2"
    },
    "id": "3290340",
    "neo_reference_id": "3290340",
    "name": "(2005 QR173)",
    "designation": "2005 QR173",
    "nasa_jpl_url": "http://ssd.jpl.nasa.gov/sbdb.cgi?sstr=3290340",
    "absolute_magnitude_h": 20.4,
    "estimated_diameter": {
        "kilometers": {
            "estimated_diameter_min": 0.2210828104,
            "estimated_diameter_max": 0.4943561926
        },
        "meters": {
            "estimated_diameter_min": 221.0828103591,
            "estimated_diameter_max": 494.3561926196
        },
        "miles": {
            "estimated_diameter_min": 0.137374447,
            "estimated_diameter_max": 0.3071786018
        },
        "feet": {
            "estimated_diameter_min": 725.3373275385,
            "estimated_diameter_max": 1621.9035709942
        }
    },
    "is_potentially_hazardous_asteroid": false,
    "close_approach_data": [
        {
            "close_approach_date": "1994-07-25",
            "close_approach_date_full": "1994-Jul-25 20:32",
            "epoch_date_close_approach": 775168320000,
            "relative_velocity": {
                "kilometers_per_second": "11.2991589638",
                "kilometers_per_hour": "40676.9722698456",
                "miles_per_hour": "25275.0886862271"
            },
            "miss_distance": {
                "astronomical": "0.3862329178",
                "lunar": "150.2446050242",
                "kilometers": "57779621.826765086",
                "miles": "35902592.1778307468"
            },
            "orbiting_body": "Earth"
        },
        {
            "close_approach_date": "2005-08-15",
            "close_approach_date_full": "2005-Aug-15 21:53",
            "epoch_date_close_approach": 1124142780000,
            "relative_velocity": {
                "kilometers_per_second": "4.5008279398",
                "kilometers_per_hour": "16202.9805832566",
                "miles_per_hour": "10067.9020185241"
            },
            "miss_distance": {
                "astronomical": "0.1924466039",
                "lunar": "74.8617289171",
                "kilometers": "28789602.032173693",
                "miles": "17889029.1774872434"
            },
            "orbiting_body": "Earth"
        },
        {
            "close_approach_date": "2009-07-16",
            "close_approach_date_full": "2009-Jul-16 22:07",
            "epoch_date_close_approach": 1247782020000,
            "relative_velocity": {
                "kilometers_per_second": "9.2641606003",
                "kilometers_per_hour": "33350.9781611918",
                "miles_per_hour": "20723.0008468805"
            },
            "miss_distance": {
                "astronomical": "0.0907152644",
                "lunar": "35.2882378516",
                "kilometers": "13570810.330726828",
                "miles": "8432510.5188051064"
            },
            "orbiting_body": "Mars"
        }
    ],
    "orbital_data": {
        "orbit_id": "15",
        "orbit_determination_date": "2017-04-06 09:10:34",
        "first_observation_date": "2005-08-29",
        "last_observation_date": "2005-10-24",
        "data_arc_in_days": 56,
        "observations_used": 43,
        "orbit_uncertainty": "6",
        "minimum_orbit_intersection": ".17383",
        "jupiter_tisserand_invariant": "3.342",
        "epoch_osculation": "2459000.5",
        "eccentricity": ".5109287190511653",
        "semi_major_axis": "2.385315748802471",
        "inclination": "4.336427863326621",
        "ascending_node_longitude": "246.41426473865",
        "orbital_period": "1345.603909432307",
        "perihelion_distance": "1.166589428734253",
        "perihelion_argument": "77.91996830971803",
        "aphelion_distance": "3.604042068870688",
        "perihelion_time": "2458994.729433888268",
        "mean_anomaly": "1.543844949959932",
        "mean_motion": ".2675378671810483",
        "equinox": "J2000",
        "orbit_class": {
            "orbit_class_type": "AMO",
            "orbit_class_description": "Near-Earth asteroid orbits similar to that of 1221 Amor",
            "orbit_class_range": "1.017 AU < q (perihelion) < 1.3 AU"
        }
    },
    "is_sentry_object": false
}